{
  "type": "FeatureCollection",
  "features": [
    {
      "type": "Feature",
      "properties": {
        "norad_id": 66611,
        "name": "STARLINK-35583",
        "group": "last-30-days",
        "lat": -40.875848137328504,
        "lon": 144.89336076245525,
        "alt_km": 398.4615805060639,
        "timestamp": "2025-12-09T05:43:19.510273+00:00",
        "meta_object_name": "STARLINK-35583",
        "meta_object_id": "2025-270Z",
        "meta_epoch": "2025-12-08T20:00:01.999008",
        "meta_mean_motion": 15.58881218,
        "meta_eccentricity": 0.0001178,
        "meta_inclination": 42.999,
        "meta_ra_of_asc_node": 215.5419,
        "meta_arg_of_pericenter": 259.6323,
        "meta_mean_anomaly": 272.0523,
        "meta_ephemeris_type": 0,
        "meta_classification_type": "U",
        "meta_norad_cat_id": 66611,
        "meta_element_set_no": 999,
        "meta_rev_at_epoch": 388,
        "meta_bstar": -0.029345,
        "meta_mean_motion_dot": -0.02082397,
        "meta_mean_motion_ddot": 0,
        "tle_line1": "1 66611U 25270Z   25342.83335647 -.02082397  00000+0 -29345-1 0  9997",
        "tle_line2": "2 66611  42.9990 215.5419 0001178 259.6323 272.0523 15.58881218  3886"
      },
      "geometry": {
        "type": "Point",
        "coordinates": [
          144.89336076245525,
          -40.875848137328504
        ]
      }
    },
    {
      "type": "Feature",
      "properties": {
        "norad_id": 66612,
        "name": "STARLINK-36039",
        "group": "last-30-days",
        "lat": -40.366158106534165,
        "lon": 147.32034193934453,
        "alt_km": 398.5195918011477,
        "timestamp": "2025-12-09T05:43:19.510283+00:00",
        "meta_object_name": "STARLINK-36039",
        "meta_object_id": "2025-270AA",
        "meta_epoch": "2025-12-08T20:00:01.999008",
        "meta_mean_motion": 15.58883475,
        "meta_eccentricity": 0.0001115,
        "meta_inclination": 42.9987,
        "meta_ra_of_asc_node": 215.5366,
        "meta_arg_of_pericenter": 258.1491,
        "meta_mean_anomaly": 275.4531,
        "meta_ephemeris_type": 0,
        "meta_classification_type": "U",
        "meta_norad_cat_id": 66612,
        "meta_element_set_no": 999,
        "meta_rev_at_epoch": 377,
        "meta_bstar": -0.02942,
        "meta_mean_motion_dot": -0.02087268,
        "meta_mean_motion_ddot": 0,
        "tle_line1": "1 66612U 25270AA  25342.83335647 -.02087268  00000+0 -29420-1 0  9994",
        "tle_line2": "2 66612  42.9987 215.5366 0001115 258.1491 275.4531 15.58883475  3776"
      },
      "geometry": {
        "type": "Point",
        "coordinates": [
          147.32034193934453,
          -40.366158106534165
        ]
      }
    },
    {
      "type": "Feature",
      "properties": {
        "norad_id": 66613,
        "name": "STARLINK-36037",
        "group": "last-30-days",
        "lat": -39.80694511839886,
        "lon": 149.7083832986783,
        "alt_km": 398.4963362020799,
        "timestamp": "2025-12-09T05:43:19.510293+00:00",
        "meta_object_name": "STARLINK-36037",
        "meta_object_id": "2025-270AB",
        "meta_epoch": "2025-12-08T20:00:01.999008",
        "meta_mean_motion": 15.58878698,
        "meta_eccentricity": 0.0001124,
        "meta_inclination": 42.9987,
        "meta_ra_of_asc_node": 215.532,
        "meta_arg_of_pericenter": 258.334,
        "meta_mean_anomaly": 277.1859,
        "meta_ephemeris_type": 0,
        "meta_classification_type": "U",
        "meta_norad_cat_id": 66613,
        "meta_element_set_no": 999,
        "meta_rev_at_epoch": 377,
        "meta_bstar": -0.029297,
        "meta_mean_motion_dot": -0.02079161,
        "meta_mean_motion_ddot": 0,
        "tle_line1": "1 66613U 25270AB  25342.83335647 -.02079161  00000+0 -29297-1 0  9990",
        "tle_line2": "2 66613  42.9987 215.5320 0001124 258.3340 277.1859 15.58878698  3775"
      },
      "geometry": {
        "type": "Point",
        "coordinates": [
          149.7083832986783,
          -39.80694511839886
        ]
      }
    },
    {
      "type": "Feature",
      "properties": {
        "norad_id": 66614,
        "name": "STARLINK-36040",
        "group": "last-30-days",
        "lat": -38.5453983868994,
        "lon": 154.36328430368505,
        "alt_km": 398.42071360687714,
        "timestamp": "2025-12-09T05:43:19.510305+00:00",
        "meta_object_name": "STARLINK-36040",
        "meta_object_id": "2025-270AC",
        "meta_epoch": "2025-12-08T20:00:01.999008",
        "meta_mean_motion": 15.58882579,
        "meta_eccentricity": 0.0001121,
        "meta_inclination": 42.9992,
        "meta_ra_of_asc_node": 215.5223,
        "meta_arg_of_pericenter": 263.5771,
        "meta_mean_anomaly": 275.777,
        "meta_ephemeris_type": 0,
        "meta_classification_type": "U",
        "meta_norad_cat_id": 66614,
        "meta_element_set_no": 999,
        "meta_rev_at_epoch": 361,
        "meta_bstar": -0.029389,
        "meta_mean_motion_dot": -0.02085246,
        "meta_mean_motion_ddot": 0,
        "tle_line1": "1 66614U 25270AC  25342.83335647 -.02085246  00000+0 -29389-1 0  9994",
        "tle_line2": "2 66614  42.9992 215.5223 0001121 263.5771 275.7770 15.58882579  3619"
      },
      "geometry": {
        "type": "Point",
        "coordinates": [
          154.36328430368505,
          -38.5453983868994
        ]
      }
    },
    {
      "type": "Feature",
      "properties": {
        "norad_id": 66615,
        "name": "STARLINK-35988",
        "group": "last-30-days",
        "lat": -39.198940946325976,
        "lon": 152.05842854818565,
        "alt_km": 398.45071399813423,
        "timestamp": "2025-12-09T05:43:19.510318+00:00",
        "meta_object_name": "STARLINK-35988",
        "meta_object_id": "2025-270AD",
        "meta_epoch": "2025-12-08T20:00:01.999008",
        "meta_mean_motion": 15.58884907,
        "meta_eccentricity": 0.0001169,
        "meta_inclination": 42.9989,
        "meta_ra_of_asc_node": 215.5272,
        "meta_arg_of_pericenter": 259.3261,
        "meta_mean_anomaly": 278.1092,
        "meta_ephemeris_type": 0,
        "meta_classification_type": "U",
        "meta_norad_cat_id": 66615,
        "meta_element_set_no": 999,
        "meta_rev_at_epoch": 361,
        "meta_bstar": -0.029425,
        "meta_mean_motion_dot": -0.02087756,
        "meta_mean_motion_ddot": 0,
        "tle_line1": "1 66615U 25270AD  25342.83335647 -.02087756  00000+0 -29425-1 0  9994",
        "tle_line2": "2 66615  42.9989 215.5272 0001169 259.3261 278.1092 15.58884907  3610"
      },
      "geometry": {
        "type": "Point",
        "coordinates": [
          152.05842854818565,
          -39.198940946325976
        ]
      }
    },
    {
      "type": "Feature",
      "properties": {
        "norad_id": 66616,
        "name": "STARLINK-35391",
        "group": "last-30-days",
        "lat": -37.84639732190139,
        "lon": 156.62775732114443,
        "alt_km": 398.356819815408,
        "timestamp": "2025-12-09T05:43:19.510331+00:00",
        "meta_object_name": "STARLINK-35391",
        "meta_object_id": "2025-270AE",
        "meta_epoch": "2025-12-08T20:00:01.999008",
        "meta_mean_motion": 15.5888356,
        "meta_eccentricity": 0.000122,
        "meta_inclination": 42.9993,
        "meta_ra_of_asc_node": 215.5178,
        "meta_arg_of_pericenter": 262.8639,
        "meta_mean_anomaly": 278.4083,
        "meta_ephemeris_type": 0,
        "meta_classification_type": "U",
        "meta_norad_cat_id": 66616,
        "meta_element_set_no": 999,
        "meta_rev_at_epoch": 388,
        "meta_bstar": -0.029448,
        "meta_mean_motion_dot": -0.02089147,
        "meta_mean_motion_ddot": 0,
        "tle_line1": "1 66616U 25270AE  25342.83335647 -.02089147  00000+0 -29448-1 0  9996",
        "tle_line2": "2 66616  42.9993 215.5178 0001220 262.8639 278.4083 15.58883560  3883"
      },
      "geometry": {
        "type": "Point",
        "coordinates": [
          156.62775732114443,
          -37.84639732190139
        ]
      }
    },
    {
      "type": "Feature",
      "properties": {
        "norad_id": 66617,
        "name": "STARLINK-35940",
        "group": "last-30-days",
        "lat": -46.560756265689896,
        "lon": 76.529513902628,
        "alt_km": 377.926079602722,
        "timestamp": "2025-12-09T05:43:19.510341+00:00",
        "meta_object_name": "STARLINK-35940",
        "meta_object_id": "2025-271A",
        "meta_epoch": "2025-12-08T20:00:01.999008",
        "meta_mean_motion": 15.66968803,
        "meta_eccentricity": 0.0001073,
        "meta_inclination": 53.1595,
        "meta_ra_of_asc_node": 206.1674,
        "meta_arg_of_pericenter": 85.9978,
        "meta_mean_anomaly": 34.1063,
        "meta_ephemeris_type": 0,
        "meta_classification_type": "U",
        "meta_norad_cat_id": 66617,
        "meta_element_set_no": 999,
        "meta_rev_at_epoch": 361,
        "meta_bstar": -0.021014,
        "meta_mean_motion_dot": -0.02003414,
        "meta_mean_motion_ddot": 0,
        "tle_line1": "1 66617U 25271A   25342.83335647 -.02003414  00000+0 -21014-1 0  9992",
        "tle_line2": "2 66617  53.1595 206.1674 0001073  85.9978  34.1063 15.66968803  3618"
      },
      "geometry": {
        "type": "Point",
        "coordinates": [
          76.529513902628,
          -46.560756265689896
        ]
      }
    }
  ]
}